[{"OBJECT_NAME":"STARLINK-1329","OBJECT_ID":"2020-025A","EPOCH":"2026-03-09T07:41:14.717472","MEAN_MOTION":15.56178822,"ECCENTRICITY":0.00013748,"INCLINATION":53.05,"RA_OF_ASC_NODE":83.1377,"ARG_OF_PERICENTER":343.8694,"MEAN_ANOMALY":16.2272,"EPHEMERIS_TYPE":0,"CLASSIFICATION_TYPE":"U","NORAD_CAT_ID":45531,"ELEMENT_SET_NO":999,"REV_AT_EPOCH":32539,"BSTAR":0.0017556532,"MEAN_MOTION_DOT":0.00126679,"MEAN_MOTION_DDOT":0},{"OBJECT_NAME":"EAGLEEYE","OBJECT_ID":"2024-149AS","EPOCH":"2026-03-09T17:00:04.921056","MEAN_MOTION":15.56719418,"ECCENTRICITY":0.00030534,"INCLINATION":97.3768,"RA_OF_ASC_NODE":157.6882,"ARG_OF_PERICENTER":252.5536,"MEAN_ANOMALY":107.5386,"EPHEMERIS_TYPE":0,"CLASSIFICATION_TYPE":"U","NORAD_CAT_ID":60508,"ELEMENT_SET_NO":999,"REV_AT_EPOCH":8739,"BSTAR":0.00091955521,"MEAN_MOTION_DOT":0.00066015,"MEAN_MOTION_DDOT":0}]
