STARLINK-1329           
1 45531U 20025A   26068.32030923  .00126679  00000+0  17557-2 0  9998
2 45531  53.0500  83.1377 0001374 343.8694  16.2272 15.56178822325391
EAGLEEYE                
1 60508U 24149AS  26068.70839029  .00066015  00000+0  91956-3 0  9999
2 60508  97.3768 157.6882 0003053 252.5536 107.5386 15.56719418 87391
